0 COSMOS 886 DEB
1 09648U 76126E   13282.94280830  .00009618  00000-0  84967-3 0  9068
2 09648 065.7897 070.1883 0363905 351.3179 153.1097 14.57411299831150
0 COSMOS 886 DEB
1 09648U 76126E   13283.73864704  .00012471  00000-0  10820-2 0  9072
2 09648 065.7891 067.9271 0363598 350.8642 008.6447 14.57421950831277
0 COSMOS 886 DEB
1 09648U 76126E   13284.50654499  .00007482  00000-0  66410-3 0  9079
2 09648 065.7895 065.7432 0363964 350.4555 077.5798 14.57428002831383
0 COSMOS 886 DEB
1 09648U 76126E   13286.84081141  .00008629  00000-0  76211-3 0  9081
2 09648 065.7896 059.1076 0364101 349.1622 085.0174 14.57461635831728
0 COSMOS 886 DEB
1 09648U 76126E   13288.48510869  .00016706  00000-0  14573-2 0  9095
2 09648 065.7903 054.4331 0364095 348.2542 072.5448 14.57511958831967
0 COSMOS 886 DEB
1 09648U 76126E   13289.78781434  .00015304  00000-0  13349-2 0  9102
2 09648 065.7907 050.7297 0364200 347.5284 067.9604 14.57532728832156
0 COSMOS 886 DEB
1 09648U 76126E   13290.53186560  .00012460  00000-0  10760-2 0  9122
2 09648 065.7904 048.6182 0363703 347.0997 012.1465 14.57560725832262
0 COSMOS 886 DEB
1 09648U 76126E   13290.82103191  .00011440  00000-0  10012-2 0  9119
2 09648 065.7911 047.7928 0364249 346.9609 089.4143 14.57556865832307
0 COSMOS 886 DEB
1 09648U 76126E   13293.49599760  .00013616  00000-0  11864-2 0  9120
2 09648 065.7912 040.1882 0364245 345.4786 085.8041 14.57612718832699
0 COSMOS 886 DEB
1 09648U 76126E   13295.76100876  .00015735  00000-0  13656-2 0  9134
2 09648 065.7908 033.7479 0364329 344.2278 091.4653 14.57664239833025
